49198,ONEWEB-0331,2021,109.2,148.0,+,87.91,Active,1,LEO,Kazakhstan,UK,Commercial,Communications,Soyuz,1 49198U 21083N   24284.54879509  .00000192  00000+0  45382-3 0  9998,2 49198  87.9052  97.7846 0001443  83.7649 276.3648 13.18686727149003,13.18686727,0.0001443,LEO
49199,ONEWEB-0333,2021,109.63,148.0,+,87.89,Active,1,LEO,Kazakhstan,UK,Commercial,Communications,Soyuz,1 49199U 21083P   24284.46348512 -.00000074  00000+0 -23656-3 0  9996,2 49199  87.8871  82.5567 0001789  95.6433 264.4900 13.13470876150215,13.13470876,0.0001789,LEO
49200,ONEWEB-0334,2021,109.03,148.0,+,87.93,Active,1,LEO,Kazakhstan,UK,Commercial,Communications,Soyuz,1 49200U 21083Q   24284.57111404  .00000173  00000+0  39431-3 0  9995,2 49200  87.9272  36.7263 0002684 114.7726 245.3687 13.20774016155666,13.20774016,0.0002684,LEO
49201,ONEWEB-0335,2021,109.63,148.0,+,87.89,Active,1,LEO,Kazakhstan,UK,Commercial,Communications,Soyuz,1 49201U 21083R   24284.53489976  .00000031  00000+0  50846-4 0  9991,2 49201  87.8869  82.5308 0001669  86.9013 273.2307 13.13471744150239,13.13471744,0.0001669,LEO
49202,ONEWEB-0336,2021,109.63,148.0,+,87.89,Active,1,LEO,Kazakhstan,UK,Commercial,Communications,Soyuz,1 49202U 21083S   24284.50474438  .00000420  00000+0  11161-2 0  9993,2 49202  87.8869  82.5322 0001607  99.0047 261.1264 13.13473222150220,13.13473222,0.0001607,LEO
49203,ONEWEB-0337,2021,109.63,148.0,+,87.89,Active,1,LEO,Kazakhstan,UK,Commercial,Communications,Soyuz,1 49203U 21083T   24284.51413844  .00000456  00000+0  12145-2 0  9991,2 49203  87.8870  82.5289 0001619  88.4398 271.6917 13.13471257150226,13.13471257,0.0001619,LEO
49204,ONEWEB-0338,2021,109.03,148.0,+,87.93,Active,1,LEO,Kazakhstan,UK,Commercial,Communications,Soyuz,1 49204U 21083U   24284.57819716  .00000085  00000+0  17695-3 0  9990,2 49204  87.9275  36.7151 0002140 101.3029 258.8345 13.20768811155682,13.20768811,0.000214,LEO
49205,ONEWEB-0339,2021,109.63,148.0,+,87.89,Active,1,LEO,Kazakhstan,UK,Commercial,Communications,Soyuz,1 49205U 21083V   24284.52537433  .00000327  00000+0  85989-3 0  9999,2 49205  87.8867  82.5198 0001724  88.9656 271.1671 13.13471127150208,13.13471127,0.0001724,LEO
